KUIPER-00176            
1 65788U 25217AC  25356.16668980 -.00069742  00000+0 -81194-2 0  9990
2 65788  51.8991  26.1313 0004831  21.9844 268.7236 14.85164343  5805
KUIPER-00101            
1 65947U 25228A   25356.16668980 -.00038501  00000+0 -46540-2 0  9994
2 65947  51.8994 343.4941 0001058  71.0730 216.0376 14.83330768  5248
KUIPER-00113            
1 65948U 25228B   25356.16668980 -.00030806  00000+0 -25356-2 0  9997
2 65948  51.8913 339.5398 0006462  63.5719 242.8226 14.98503899  5715
KUIPER-00117            
1 65949U 25228C   25356.16668980 -.00040506  00000+0 -43059-2 0  9996
2 65949  51.8985 341.2763 0009553  65.1538  83.8797 14.88555508  2369
KUIPER-00121            
1 65950U 25228D   25356.16668980 -.00021083  00000+0 -12614-2 0  9990
2 65950  51.8865 337.4656 0006391  63.4356 303.6163 15.10169235  1309
KUIPER-00122            
1 65951U 25228E   25356.16668980 -.00028664  00000+0 -38246-2 0  9992
2 65951  51.9120 345.8639 0000998 110.3682  73.0750 14.79073013  4585
KUIPER-00123            
1 65952U 25228F   25356.16668980 -.00025999  00000+0 -34655-2 0  9991
2 65952  51.8993 345.8936 0001364 147.7976 212.9013 14.79065165  5116
KUIPER-00124            
1 65953U 25228G   25356.16668980 -.00850730  00000+0 -82036-1 0  9996
2 65953  51.9172 338.8146 0005694  64.0945  16.3405 14.95392928  4870
